OSCAR 10
1 14129U 83058B   01246.29485339  .00000061  00000-0  10000-3 0  8324
2 14129  26.3778 254.7169 6018550 179.6934 180.8847  2.05867592109088
OSCAR 11 (UoSAT 2)
1 14781U 84021B   01248.98115013 +.00001823 +00000-0 +28302-3 0 06055
2 14781 098.0409 212.4727 0011470 109.7506 250.4940 14.74273738937941
COSMOS 1861
1 18129U 87054A   01248.85209542 +.00000066 +00000-0 +55335-4 0 00195
2 18129 082.9277 179.0258 0010112 263.8395 096.1600 13.72577944711708
OSCAR 14 (UOSAT 3)
1 20437U 90005B   01248.67434384  .00000215  00000-0  98083-4 0  7712
2 20437  98.3542 305.4743 0011194 341.7506  18.3274 14.30756019606561
OSCAR 15 (UOSAT 4)
1 20438U 90005C   01248.67274547  .00000138  00000-0  69771-4 0  5574
2 20438  98.3247 297.1386 0010404 352.3693   7.7330 14.29824392606284
OSCAR 16 (PACSAT)
1 20439U 90005D   01249.25172918  .00000222  00000-0  10064-3 0  5742
2 20439  98.3986 314.6524 0011113 345.0670  15.0159 14.30888655606674
OSCAR 17 (DOVE)
1 20440U 90005E   01248.70623145  .00000271  00000-0  11862-3 0  5613
2 20440  98.4123 316.8677 0011177 344.8190  15.2654 14.31107756606654
OSCAR 18 (WEBERSAT)
1 20441U 90005F   01248.91480056 +.00000231 +00000-0 +10399-3 0 06092
2 20441 098.4082 316.5803 0011875 346.1859 013.8997 14.30980138606677
OSCAR 19 (LUSAT)
1 20442U 90005G   01248.74166119  .00000259  00000-0  11413-3 0  5700
2 20442  98.4214 318.5604 0012081 344.1769  15.9035 14.31128301606699
JAS 1B (FUJI 2)
1 20480U 90013C   01248.70746030 -.00000016 +00000-0 +28902-4 0 03772
2 20480 099.0523 302.0580 0540661 126.8221 238.3742 12.83296579542424
INFORMATOR 1
1 21087U 91006A   01249.32012565  .00000065  00000-0  52603-4 0  9265
2 21087  82.9447 350.0543 0034427 291.4616  68.2859 13.74792543532028
COSMOS 2123
1 21089U 91007A   01248.95703322 +.00000070 +00000-0 +58150-4 0 03638
2 21089 082.9202 215.0655 0028824 327.8537 032.0853 13.74280754530907
OSCAR 22 (UoSAT 5)
1 21575U 91050B   01249.23787997  .00000424  00000-0  15279-3 0  3006
2 21575  98.1253 259.1601 0006778 302.4183  57.6349 14.38230769532022
OSCAR 23 (KITSAT 1)
1 22077U 92052B   01248.96106290 -.00000037 +00000-0 +10000-3 0 00428
2 22077 066.0861 156.8917 0010299 215.9261 144.1066 12.86371373426051
ARASENE
1 22654U 93031B   01235.64409085 -.00000135 +00000-0 +10000-3 0 05486
2 22654 005.1099 026.5115 2850513 001.2743 359.2882 01.42204389038524
KITSAT B
1 22825U 93061C   01249.19587383  .00000181  00000-0  88980-4 0   716
2 22825  98.3434 294.1466 0009303  32.3891 327.7860 14.28460597414148
POSAT 1
1 22826U 93061D   01248.67162702 +.00000220 +00000-0 +10393-3 0 00573
2 22826 098.3492 294.4903 0009729 032.0428 328.1345 14.28635695414109
ITAMSAT
1 22828U 93061F   01248.64932714  .00000203  00000-0  96409-4 0   260
2 22828  98.3459 294.7048 0010573  12.8009 347.3437 14.29050256382280
EYESAT A
1 22829U 93061G   01248.65734593  .00000292  00000-0  13127-3 0   518
2 22829  98.3466 295.0742 0010287  13.8484 346.2979 14.29128523414204
RADIO ROSTO
1 23439U 94085A   01248.73625848 -.00000040 +00000-0 +63356-4 0 05724
2 23439 064.8157 179.9088 0163572 212.8998 146.1660 11.27542730275740
JAS 2
1 24278U 96046B   01248.67012234 +.00000004 +00000-0 +38232-4 0 04438
2 24278 098.5316 102.9242 0351052 153.1482 208.8314 13.52779436249522
TMSAT
1 25396U 98043C   01248.93314484 -.00000044 +00000-0 +00000-0 0 05557
2 25396 098.6809 324.9596 0002123 201.7047 158.4044 14.23045171164043
TECHSAT 1B
1 25397U 98043D   01248.90589182 +.00000113 +00000-0 +69930-4 0 01456
2 25397 098.6787 324.3976 0000342 208.0266 152.0895 14.22620432164030
SEDSAT 1
1 25509U 98061B   01248.51200005 +.00001164 +00000-0 +22716-3 0 03912
2 25509 031.4373 269.0372 0363233 350.1075 009.2554 14.25844981149414
PAN SAT
1 25520U 98064B   01249.09050375  .00003054  00000-0  17841-3 0  4414
2 25520  28.4621 145.2923 0006514  14.9185 345.1652 15.08744989157238
ORSTED
1 25635U 99008B   01249.33158393  .00001165  00000-0  31328-3 0  4086
2 25635  96.4835 352.1789 0148025 209.4902 149.7884 14.42978815133411
SUNSAT
1 25636U 99008C   01248.95517252 +.00000617 +00000-0 +17309-3 0 05598
2 25636 096.4866 351.4567 0149570 212.6694 146.5183 14.41969482133317
UOSAT 12
1 25693U 99021A   01249.31125262  .00004359  00000-0  67234-3 0  1565
2 25693  64.5631 190.3859 0041034 237.3438 122.3762 14.74013573128042
KITSAT 3
1 25756U 99029A   01249.29272754  .00000593  00000-0  16257-3 0   451
2 25756  98.3991 353.6485 0014412 196.7869 163.2859 14.50607055120851
TUBSAT
1 25757U 99029B   01249.31352965  .00000310  00000-0  91580-4 0   526
2 25757  98.3996 353.0581 0015065 200.5205 159.5386 14.49960630120831
IRS P4 (OCEANSAT 1)
1 25758U 99029C   01249.24305151  .00000979  00000-0  25967-3 0  5985
2 25758  98.2916 345.1830 0000610  75.1243 285.0017 14.50833114120913
AMSAT OSCAR 40
1 26609U 00072B   01247.66215455 -.00000113 +00000-0 +10000-3 0 01396
2 26609 005.7768 159.1119 7977565 323.3451 002.9576 01.25600911003908


OSCAR 8
1 10703U 78026B   01249.13722561  .00000479  00000-0  36745-3 0  8275
2 10703  99.2465 294.1305 0007458  75.6975 284.5042 13.98332868198863
RADIO 3
1 12997U 81120A   01248.94776005 +.00000020 +00000-0 +10000-3 0 05906
2 12997 082.9528 244.8601 0058806 137.4302 223.1347 12.15726750875150
RADIO 8
1 12998U 81120B   01248.76400252 +.00000018 +00000-0 +10000-3 0 09625
2 12998 082.9628 340.8692 0017637 256.9000 103.0083 12.03070805866038
RADIO 5
1 12999U 81120C   01248.74674323 +.00000018 +00000-0 +10000-3 0 02427
2 12999 082.9584 325.2589 0016222 162.5616 197.6005 12.05167113867547
RADIO 4
1 13000U 81120D   01248.72488190 +.00000018 +00000-0 +10000-3 0 02165
2 13000 082.9638 314.1110 0020875 087.3266 273.0184 12.06786521868709
RADIO 7
1 13001U 81120E   01248.66834983 +.00000018 +00000-0 +10000-3 0 09688
2 13001 082.9586 297.5685 0023447 000.4247 359.6830 12.08815625870102
RADIO 6
1 13002U 81120F   01248.91954418 +.00000019 +00000-0 +10000-3 0 05725
2 13002 082.9564 260.5254 0049554 207.5065 152.3376 12.13702652873697
JAS 1 (FUJI 1)
1 16909U 86061B   01249.23003829 -.00000083  00000-0  10000-3 0  4417
2 16909  50.0144 255.5557 0011150 178.0430 182.0449 12.44436951685237
